{
  "type": "FeatureCollection",
  "name": "sakshi_sites",
  "crs": {
    "type": "name",
    "properties": {
      "name": "urn:ogc:def:crs:OGC:1.3:CRS84"
    }
  },
  "features": [
    {
      "type": "Feature",
      "geometry": {
        "type": "Point",
        "coordinates": [
          83.275831,
          27.469609
        ]
      },
      "properties": {
        "id": "maya-devi-temple",
        "name_en": "Maya Devi Temple",
        "name_ne": "माया देवी मन्दिर",
        "region": "Lumbini",
        "zone": "sacred_garden",
        "tier": 1,
        "surveyed": true,
        "coords_source": "osm",
        "geofence_m": 30,
        "period_from": -250,
        "period_to": null,
        "photography": "restricted",
        "established_vantages": 2,
        "sources": [
          "UNESCO WHC: Lumbini, the Birthplace of the Lord Buddha (666rev)",
          "Mukherji 1901, ASI Imperial Series XXVI/1: Antiquities in the Tarai, Nepal",
          "OpenStreetMap: Mayadevi Temple node (wikidata Q15238480)"
        ],
        "source_urls": [
          "https://whc.unesco.org/en/list/666",
          "https://archive.org/details/bub_gb_5iYXAAAAYAAJ",
          "https://www.openstreetmap.org/"
        ]
      }
    },
    {
      "type": "Feature",
      "geometry": {
        "type": "Point",
        "coordinates": [
          83.275668,
          27.469681
        ]
      },
      "properties": {
        "id": "ashokan-pillar",
        "name_en": "Ashokan Pillar",
        "name_ne": "अशोक स्तम्भ",
        "region": "Lumbini",
        "zone": "sacred_garden",
        "tier": 1,
        "surveyed": true,
        "coords_source": "osm",
        "geofence_m": 30,
        "period_from": -249,
        "period_to": null,
        "photography": "allowed",
        "established_vantages": 2,
        "sources": [
          "UNESCO WHC: Lumbini, the Birthplace of the Lord Buddha (666rev)",
          "Hultzsch, Inscriptions of Asoka (CII Vol. I, 1925)",
          "Mukherji 1901, ASI Imperial Series XXVI/1",
          "OpenStreetMap: Ashoka Pillar node"
        ],
        "source_urls": [
          "https://whc.unesco.org/en/list/666",
          "https://archive.org/details/inscriptionsofas035106mbp",
          "https://archive.org/details/bub_gb_5iYXAAAAYAAJ",
          "https://www.openstreetmap.org/"
        ]
      }
    },
    {
      "type": "Feature",
      "geometry": {
        "type": "Point",
        "coordinates": [
          83.2756,
          27.4694
        ]
      },
      "properties": {
        "id": "puskarini",
        "name_en": "Puskarini",
        "name_ne": "पुष्करिणी",
        "region": "Lumbini",
        "zone": "sacred_garden",
        "tier": 1,
        "surveyed": false,
        "coords_source": "doc",
        "geofence_m": 25,
        "period_from": null,
        "period_to": null,
        "photography": "allowed",
        "established_vantages": 2,
        "sources": [
          "UNESCO WHC: Lumbini, the Birthplace of the Lord Buddha (666rev)",
          "Mukherji 1901, ASI Imperial Series XXVI/1"
        ],
        "source_urls": [
          "https://whc.unesco.org/en/list/666",
          "https://archive.org/details/bub_gb_5iYXAAAAYAAJ"
        ]
      }
    },
    {
      "type": "Feature",
      "geometry": {
        "type": "Point",
        "coordinates": [
          83.275831,
          27.469609
        ]
      },
      "properties": {
        "id": "marker-stone",
        "name_en": "Marker Stone",
        "name_ne": "चिन्ह ढुङ्गा",
        "region": "Lumbini",
        "zone": "sacred_garden",
        "tier": 1,
        "surveyed": false,
        "coords_source": "doc",
        "geofence_m": 20,
        "period_from": null,
        "period_to": null,
        "photography": "restricted",
        "established_vantages": 0,
        "sources": [
          "UNESCO WHC: Lumbini (666rev)"
        ],
        "source_urls": [
          "https://whc.unesco.org/en/list/666"
        ]
      }
    },
    {
      "type": "Feature",
      "geometry": {
        "type": "Point",
        "coordinates": [
          83.2762,
          27.4699
        ]
      },
      "properties": {
        "id": "vihara-remains",
        "name_en": "Vihara & Stupa Remains",
        "name_ne": "विहार तथा स्तूप अवशेष",
        "region": "Lumbini",
        "zone": "sacred_garden",
        "tier": 1,
        "surveyed": false,
        "coords_source": "doc",
        "geofence_m": 40,
        "period_from": -250,
        "period_to": 500,
        "photography": "allowed",
        "established_vantages": 0,
        "sources": [
          "UNESCO WHC: Lumbini (666rev)",
          "Mukherji 1901, ASI Imperial Series XXVI/1"
        ],
        "source_urls": [
          "https://whc.unesco.org/en/list/666",
          "https://archive.org/details/bub_gb_5iYXAAAAYAAJ"
        ]
      }
    },
    {
      "type": "Feature",
      "geometry": {
        "type": "Point",
        "coordinates": [
          83.277797,
          27.476144
        ]
      },
      "properties": {
        "id": "myanmar-temple",
        "name_en": "Lokamani Cula Pagoda",
        "name_ne": "लोकमणि चूल पगोडा",
        "region": "Lumbini",
        "zone": "monastic_east",
        "tier": 2,
        "surveyed": true,
        "coords_source": "osm",
        "geofence_m": 45,
        "period_from": 1970,
        "period_to": null,
        "photography": "allowed",
        "established_vantages": 0,
        "sources": [
          "UNESCO WHC: Lumbini (666rev)"
        ],
        "source_urls": [
          "https://whc.unesco.org/en/list/666"
        ]
      }
    },
    {
      "type": "Feature",
      "geometry": {
        "type": "Point",
        "coordinates": [
          83.27201,
          27.480294
        ]
      },
      "properties": {
        "id": "china-temple",
        "name_en": "China Temple",
        "name_ne": "चीन मन्दिर",
        "region": "Lumbini",
        "zone": "monastic_west",
        "tier": 2,
        "surveyed": true,
        "coords_source": "osm",
        "geofence_m": 50,
        "period_from": 1996,
        "period_to": null,
        "photography": "allowed",
        "established_vantages": 0,
        "sources": [
          "UNESCO WHC: Lumbini (666rev)"
        ],
        "source_urls": [
          "https://whc.unesco.org/en/list/666"
        ]
      }
    },
    {
      "type": "Feature",
      "geometry": {
        "type": "Point",
        "coordinates": [
          83.271731,
          27.477994
        ]
      },
      "properties": {
        "id": "korean-temple",
        "name_en": "Dae Sung Suk Ga Sa",
        "name_ne": "डे सुङ सुक गा सा",
        "region": "Lumbini",
        "zone": "monastic_west",
        "tier": 2,
        "surveyed": true,
        "coords_source": "osm",
        "geofence_m": 50,
        "period_from": 2000,
        "period_to": null,
        "photography": "allowed",
        "established_vantages": 0,
        "sources": [
          "UNESCO WHC: Lumbini (666rev)"
        ],
        "source_urls": [
          "https://whc.unesco.org/en/list/666"
        ]
      }
    },
    {
      "type": "Feature",
      "geometry": {
        "type": "Point",
        "coordinates": [
          83.278385,
          27.475579
        ]
      },
      "properties": {
        "id": "gautami-nuns-temple",
        "name_en": "International Gautami Nuns Temple",
        "name_ne": "अन्तर्राष्ट्रिय गौतमी भिक्षुणी मन्दिर",
        "region": "Lumbini",
        "zone": "monastic_east",
        "tier": 2,
        "surveyed": true,
        "coords_source": "osm",
        "geofence_m": 45,
        "period_from": 2000,
        "period_to": null,
        "photography": "allowed",
        "established_vantages": 0,
        "sources": [
          "UNESCO WHC: Lumbini (666rev)"
        ],
        "source_urls": [
          "https://whc.unesco.org/en/list/666"
        ]
      }
    },
    {
      "type": "Feature",
      "geometry": {
        "type": "Point",
        "coordinates": [
          83.27626,
          27.498881
        ]
      },
      "properties": {
        "id": "world-peace-pagoda",
        "name_en": "World Peace Pagoda",
        "name_ne": "विश्व शान्ति स्तूप",
        "region": "Lumbini",
        "zone": "monastic_east",
        "tier": 2,
        "surveyed": true,
        "coords_source": "osm",
        "geofence_m": 50,
        "period_from": 2001,
        "period_to": null,
        "photography": "allowed",
        "established_vantages": 0,
        "sources": [
          "UNESCO WHC: Lumbini (666rev)"
        ],
        "source_urls": [
          "https://whc.unesco.org/en/list/666"
        ]
      }
    },
    {
      "type": "Feature",
      "geometry": {
        "type": "Point",
        "coordinates": [
          83.0536,
          27.5747
        ]
      },
      "properties": {
        "id": "tilaurakot",
        "name_en": "Tilaurakot–Kapilavastu",
        "name_ne": "तिलौराकोट–कपिलवस्तु",
        "region": "Lumbini",
        "zone": "greater_lumbini",
        "tier": 3,
        "surveyed": false,
        "coords_source": "doc",
        "geofence_m": 60,
        "period_from": -600,
        "period_to": null,
        "photography": "allowed",
        "established_vantages": 0,
        "sources": [
          "UNESCO WHC: Lumbini (666rev)",
          "Mukherji 1901, ASI Imperial Series XXVI/1"
        ],
        "source_urls": [
          "https://whc.unesco.org/en/list/666",
          "https://archive.org/details/bub_gb_5iYXAAAAYAAJ"
        ]
      }
    },
    {
      "type": "Feature",
      "geometry": {
        "type": "Point",
        "coordinates": [
          83.687,
          27.503
        ]
      },
      "properties": {
        "id": "ramagrama",
        "name_en": "Ramagrama Stupa",
        "name_ne": "रामग्राम स्तूप",
        "region": "Lumbini",
        "zone": "greater_lumbini",
        "tier": 3,
        "surveyed": false,
        "coords_source": "doc",
        "geofence_m": 60,
        "period_from": -500,
        "period_to": null,
        "photography": "allowed",
        "established_vantages": 0,
        "sources": [
          "UNESCO WHC: Lumbini (666rev)"
        ],
        "source_urls": [
          "https://whc.unesco.org/en/list/666"
        ]
      }
    },
    {
      "type": "Feature",
      "geometry": {
        "type": "Point",
        "coordinates": [
          85.325035,
          27.673445
        ]
      },
      "properties": {
        "id": "patan-durbar-square",
        "name_en": "Patan Durbar Square",
        "name_ne": "पाटन दरबार क्षेत्र",
        "region": "Kathmandu Valley",
        "zone": "kathmandu_valley",
        "tier": 1,
        "surveyed": true,
        "coords_source": "osm",
        "geofence_m": 60,
        "period_from": 1627,
        "period_to": null,
        "photography": "allowed",
        "established_vantages": 2,
        "sources": [
          "UNESCO WHC: Kathmandu Valley (121)",
          "Slusser 1982, Nepal Mandala: A Cultural Study of the Kathmandu Valley",
          "Department of Archaeology, Nepal"
        ],
        "source_urls": [
          "https://whc.unesco.org/en/list/121",
          null,
          null
        ]
      }
    },
    {
      "type": "Feature",
      "geometry": {
        "type": "Point",
        "coordinates": [
          85.427897,
          27.716347
        ]
      },
      "properties": {
        "id": "changu-narayan",
        "name_en": "Changu Narayan",
        "name_ne": "चाँगुनारायण",
        "region": "Kathmandu Valley",
        "zone": "kathmandu_valley",
        "tier": 1,
        "surveyed": true,
        "coords_source": "osm",
        "geofence_m": 50,
        "period_from": 464,
        "period_to": null,
        "photography": "allowed",
        "established_vantages": 2,
        "sources": [
          "UNESCO WHC: Kathmandu Valley (121)",
          "Pillar inscription of King Mānadeva, Changu Narayan (D. R. Regmi, Inscriptions of Ancient Nepal, 1983)",
          "Department of Archaeology, Nepal"
        ],
        "source_urls": [
          "https://whc.unesco.org/en/list/121",
          null,
          null
        ]
      }
    },
    {
      "type": "Feature",
      "geometry": {
        "type": "Point",
        "coordinates": [
          85.3255348,
          27.6735225
        ]
      },
      "properties": {
        "id": "manga-hiti",
        "name_en": "Manga Hiti",
        "name_ne": "मंग हिटी",
        "region": "Kathmandu Valley",
        "zone": "kathmandu_valley",
        "tier": 2,
        "surveyed": true,
        "coords_source": "osm",
        "geofence_m": 15,
        "period_from": 570,
        "period_to": null,
        "photography": "allowed",
        "established_vantages": 2,
        "sources": [
          "Slusser 1982, Nepal Mandala: A Cultural Study of the Kathmandu Valley"
        ],
        "source_urls": [
          null
        ]
      }
    }
  ]
}