{
  "type": "FeatureCollection",
  "name": "sakshi_vantages",
  "crs": {
    "type": "name",
    "properties": {
      "name": "urn:ogc:def:crs:OGC:1.3:CRS84"
    }
  },
  "features": [
    {
      "type": "Feature",
      "geometry": {
        "type": "Point",
        "coordinates": [
          83.275831,
          27.469429
        ]
      },
      "properties": {
        "id": "maya-devi-temple.v1",
        "site_id": "maya-devi-temple",
        "label_en": "South approach, facing north",
        "heading_deg": 0,
        "pitch_deg": 0,
        "hfov_deg": 60,
        "tolerance_position_m": 8,
        "tolerance_heading_deg": 12,
        "reference_year": null,
        "reference_source": null,
        "reference_licence": null
      }
    },
    {
      "type": "Feature",
      "geometry": {
        "type": "Point",
        "coordinates": [
          83.276033,
          27.469609
        ]
      },
      "properties": {
        "id": "maya-devi-temple.v2",
        "site_id": "maya-devi-temple",
        "label_en": "East side, facing west",
        "heading_deg": 270,
        "pitch_deg": 0,
        "hfov_deg": 60,
        "tolerance_position_m": 8,
        "tolerance_heading_deg": 12,
        "reference_year": null,
        "reference_source": null,
        "reference_licence": null
      }
    },
    {
      "type": "Feature",
      "geometry": {
        "type": "Point",
        "coordinates": [
          83.275562,
          27.469586
        ]
      },
      "properties": {
        "id": "ashokan-pillar.v1",
        "site_id": "ashokan-pillar",
        "label_en": "South-west, facing the inscription",
        "heading_deg": 45,
        "pitch_deg": 8,
        "hfov_deg": 55,
        "tolerance_position_m": 8,
        "tolerance_heading_deg": 12,
        "reference_year": null,
        "reference_source": null,
        "reference_licence": null
      }
    },
    {
      "type": "Feature",
      "geometry": {
        "type": "Point",
        "coordinates": [
          83.275818,
          27.469681
        ]
      },
      "properties": {
        "id": "ashokan-pillar.v2",
        "site_id": "ashokan-pillar",
        "label_en": "East side, facing west",
        "heading_deg": 270,
        "pitch_deg": 8,
        "hfov_deg": 55,
        "tolerance_position_m": 8,
        "tolerance_heading_deg": 12,
        "reference_year": null,
        "reference_source": null,
        "reference_licence": null
      }
    },
    {
      "type": "Feature",
      "geometry": {
        "type": "Point",
        "coordinates": [
          83.2756,
          27.46955
        ]
      },
      "properties": {
        "id": "puskarini.v1",
        "site_id": "puskarini",
        "label_en": "North edge, facing south",
        "heading_deg": 180,
        "pitch_deg": -3,
        "hfov_deg": 60,
        "tolerance_position_m": 8,
        "tolerance_heading_deg": 12,
        "reference_year": null,
        "reference_source": null,
        "reference_licence": null
      }
    },
    {
      "type": "Feature",
      "geometry": {
        "type": "Point",
        "coordinates": [
          83.27545,
          27.4694
        ]
      },
      "properties": {
        "id": "puskarini.v2",
        "site_id": "puskarini",
        "label_en": "West edge, facing east",
        "heading_deg": 90,
        "pitch_deg": -3,
        "hfov_deg": 60,
        "tolerance_position_m": 8,
        "tolerance_heading_deg": 12,
        "reference_year": null,
        "reference_source": null,
        "reference_licence": null
      }
    },
    {
      "type": "Feature",
      "geometry": {
        "type": "Point",
        "coordinates": [
          85.325035,
          27.67325
        ]
      },
      "properties": {
        "id": "patan-durbar-square.v1",
        "site_id": "patan-durbar-square",
        "label_en": "South approach, facing north",
        "heading_deg": 0,
        "pitch_deg": 0,
        "hfov_deg": 60,
        "tolerance_position_m": 8,
        "tolerance_heading_deg": 12,
        "reference_year": null,
        "reference_source": null,
        "reference_licence": null
      }
    },
    {
      "type": "Feature",
      "geometry": {
        "type": "Point",
        "coordinates": [
          85.32535,
          27.673445
        ]
      },
      "properties": {
        "id": "patan-durbar-square.v2",
        "site_id": "patan-durbar-square",
        "label_en": "East side, facing west",
        "heading_deg": 270,
        "pitch_deg": 0,
        "hfov_deg": 60,
        "tolerance_position_m": 8,
        "tolerance_heading_deg": 12,
        "reference_year": null,
        "reference_source": null,
        "reference_licence": null
      }
    },
    {
      "type": "Feature",
      "geometry": {
        "type": "Point",
        "coordinates": [
          85.427897,
          27.7161
        ]
      },
      "properties": {
        "id": "changu-narayan.v1",
        "site_id": "changu-narayan",
        "label_en": "South approach, facing north",
        "heading_deg": 0,
        "pitch_deg": 0,
        "hfov_deg": 55,
        "tolerance_position_m": 8,
        "tolerance_heading_deg": 12,
        "reference_year": null,
        "reference_source": null,
        "reference_licence": null
      }
    },
    {
      "type": "Feature",
      "geometry": {
        "type": "Point",
        "coordinates": [
          85.4282,
          27.716347
        ]
      },
      "properties": {
        "id": "changu-narayan.v2",
        "site_id": "changu-narayan",
        "label_en": "East side, facing west",
        "heading_deg": 270,
        "pitch_deg": 0,
        "hfov_deg": 55,
        "tolerance_position_m": 8,
        "tolerance_heading_deg": 12,
        "reference_year": null,
        "reference_source": null,
        "reference_licence": null
      }
    },
    {
      "type": "Feature",
      "geometry": {
        "type": "Point",
        "coordinates": [
          85.325535,
          27.67357
        ]
      },
      "properties": {
        "id": "manga-hiti.v1",
        "site_id": "manga-hiti",
        "label_en": "Tank rim, facing the spouts",
        "heading_deg": 220,
        "pitch_deg": 10,
        "hfov_deg": 50,
        "tolerance_position_m": 5,
        "tolerance_heading_deg": 10,
        "reference_year": null,
        "reference_source": null,
        "reference_licence": null
      }
    },
    {
      "type": "Feature",
      "geometry": {
        "type": "Point",
        "coordinates": [
          85.32565,
          27.67348
        ]
      },
      "properties": {
        "id": "manga-hiti.v2",
        "site_id": "manga-hiti",
        "label_en": "North step, facing south",
        "heading_deg": 280,
        "pitch_deg": 8,
        "hfov_deg": 50,
        "tolerance_position_m": 5,
        "tolerance_heading_deg": 10,
        "reference_year": null,
        "reference_source": null,
        "reference_licence": null
      }
    }
  ]
}